[{"OBJECT_NAME":"LYNK TOWER 3","OBJECT_ID":"2023-001AP","EPOCH":"2026-03-09T16:30:02.373408","MEAN_MOTION":15.34026505,"ECCENTRICITY":0.00098594,"INCLINATION":97.3321,"RA_OF_ASC_NODE":129.5399,"ARG_OF_PERICENTER":112.8813,"MEAN_ANOMALY":247.3472,"EPHEMERIS_TYPE":0,"CLASSIFICATION_TYPE":"U","NORAD_CAT_ID":55046,"ELEMENT_SET_NO":999,"REV_AT_EPOCH":17664,"BSTAR":0.00042323634,"MEAN_MOTION_DOT":0.00013886,"MEAN_MOTION_DDOT":0},{"OBJECT_NAME":"STARLINK-34867","OBJECT_ID":"2025-195B","EPOCH":"2026-03-09T18:07:16.043520","MEAN_MOTION":15.30209726,"ECCENTRICITY":0.00012203,"INCLINATION":53.156,"RA_OF_ASC_NODE":257.8795,"ARG_OF_PERICENTER":122.2141,"MEAN_ANOMALY":237.8979,"EPHEMERIS_TYPE":0,"CLASSIFICATION_TYPE":"U","NORAD_CAT_ID":65459,"ELEMENT_SET_NO":999,"REV_AT_EPOCH":3000,"BSTAR":0.00086453483,"MEAN_MOTION_DOT":0.00025341,"MEAN_MOTION_DDOT":0}]
